UNKNOWN                 
1 82961U          25332.39346177  .00010294  00000+0  16926-1 0  9991
2 82961  99.9125 127.6218 0375100  38.7846 323.9572 13.22925587553819
UNKNOWN                 
1 82965U          25341.16703301  .00001630  00000+0  22495-2 0  9999
2 82965 100.1169  60.5165 0002674 181.9708 178.1421 13.59984266523698
UNKNOWN                 
1 83903U          25341.80632562 -.00000351  00000+0  00000+0 0  9998
2 83903   6.1974 290.6642 0124163 251.3718 308.6118  0.99115003 43614
UNKNOWN                 
1 83934U          25342.14058284 -.00000001  00000+0  00000+0 0  9995
2 83934   5.7932 297.5457 0232991 273.2514 288.5473  1.02660945 45238
UNKNOWN                 
1 83970U          25341.95886974  .00006891  00000+0  76686-2 0  9996
2 83970  18.2522 224.6661 5069140 134.4385 280.3311  5.31955130195958
UNKNOWN                 
1 84006U          25342.02331331 -.00000032  00000+0  00000+0 0  9994
2 84006  22.4631 178.4942 6147668  59.0847 347.2933  2.16233443 84128
UNKNOWN                 
1 84188U          25342.03851544  .00452194  00000+0  24927+0 0  9992
2 84188  65.1712 262.0901 3802227  19.2147 351.9740  7.51258791 40919
UNKNOWN                 
1 84232U          25341.16072799  .00011121  00000+0  91554-2 0  9996
2 84232  20.3312 277.4334 6562408  58.6055 349.3345  3.17071665104510
UNKNOWN                 
1 84236U          25335.56352231  .00000147  00000+0  20940-2 0  9996
2 84236   9.4487 340.0057 6895470  84.4337 344.2430  2.62508844113682
UNKNOWN                 
1 84292U          25340.09293321  .00004310  00000+0  23571-2 0  9995
2 84292  23.8275 169.5275 4565377 224.0099  88.9852  6.21443411227650
UNKNOWN                 
1 84406U          25319.66311418  .00001001  00000+0  54538-2 0  9990
2 84406 101.7190 103.4592 0042237  96.4823 287.3910 12.67280566 45863
UNKNOWN                 
1 84407U          25342.07922719  .00000290  00000+0  19402-1 0  9993
2 84407  19.4986 323.8623 7201971  59.3632 352.3088  2.05763792 75770
UNKNOWN                 
1 84575U          25341.84606383 -.00000008  00000+0  41193-2 0  9990
2 84575  18.1313 160.0863 7099925  19.5657 357.6594  2.19885753 65352
UNKNOWN                 
1 84932U          25342.60332421  .00001390  00000+0  10764-1 0  9994
2 84932   2.0720 247.5459 6575340  49.6671 177.9834  2.99939407131655
UNKNOWN                 
1 85004U          25342.69769227  .00002018  00000+0  63209-3 0  9994
2 85004  98.4209 313.7981 0046990 173.2409   6.7522 14.41073358630318
UNKNOWN                 
1 85010U          25341.58499192  .00001734  00000+0  18560-2 0  9992
2 85010  99.2489 203.6532 0026311 269.8887 118.6781 13.75033057603217
UNKNOWN                 
1 85015U          25342.46215153  .00001072  00000+0  21807-3 0  9992
2 85015  74.0496  46.3912 0016439 311.5941  48.3816 14.62281728641982
UNKNOWN                 
1 85023U          25341.98915606  .00036296  00000+0  55078-2 0  9999
2 85023  99.8503 356.4750 0002210 353.5630  37.1239 14.73958315628135
UNKNOWN                 
1 85027U          25341.12165593  .00000417  00000+0  46865-3 0  9992
2 85027  66.0404 115.2654 0178090 193.6064 166.0167 13.74240764603848
UNKNOWN                 
1 85047U          25342.17293707  .00020095  00000+0  32326-1 0  9998
2 85047 102.2082 306.6518 0155109  15.8489 344.7410 13.43963595576049
UNKNOWN                 
1 85061U          25342.44753534  .00004227  00000+0  17006-1 0  9990
2 85061 102.3969 325.8658 0261473 202.5786 312.4359 12.76964403555231
UNKNOWN                 
1 85100U          25338.48162932  .00000743  00000+0  24049-3 0  9995
2 85100  74.0457 238.0513 0011351 111.1349  67.5711 14.40700016632153
UNKNOWN                 
1 85106U          25342.12377409  .00000833  00000+0  95626-3 0  9993
2 85106 100.0570  82.7572 0009512  27.1598  96.7780 13.72888913602437
UNKNOWN                 
1 85151U          25341.55944766  .00035178  00000+0  48313-2 0  9995
2 85151  98.4031 205.3723 0007199 145.6863 214.4813 14.78228434478766
UNKNOWN                 
1 85210U          25342.14599267  .00001170  00000+0  11456-2 0  9992
2 85210  99.8560 123.0085 0216395 325.9724 215.1481 13.71521903601520
UNKNOWN                 
1 85217U          25341.71131448  .00006631  00000+0  17440-2 0  9990
2 85217  98.0318  76.4382 0209068 143.4695 218.0964 14.37145004627139
UNKNOWN                 
1 85237U          25337.13567881  .00012532  00000+0  26354-2 0  9998
2 85237  65.5353 240.1163 0512357  32.0566 331.0605 14.00711508607004
UNKNOWN                 
1 85238U          25342.06623256  .00000082  00000+0  10324-3 0  9994
2 85238  99.0616 271.3814 0062768 212.6926 160.4068 13.88341023610197
UNKNOWN                 
1 85246U          25341.97682389  .00002977  00000+0  10736-2 0  9995
2 85246  97.9861 345.9197 0222543 318.2973  40.1424 14.21472301622398
UNKNOWN                 
1 85373U          25341.92132036  .00003168  00000+0  21670-2 0  9992
2 85373 100.4259  17.3385 0051263 249.7536 235.8987 13.99964045611458
UNKNOWN                 
1 87014U          25341.14737627  .00003480  00000+0  53467-2 0  9993
2 87014 100.4936 305.1243 0050508 260.9487 121.3430 13.51827652590162
UNKNOWN                 
1 87029U          25336.55533337  .00001234  00000+0  77827-3 0  9992
2 87029  98.7581  12.1757 0081014 278.7103  80.4895 14.04451333591570
UNKNOWN                 
1 87042U          25341.55904596  .00001563  00000+0  95094-3 0  9993
2 87042  98.7155  24.9599 0044301 110.1365 250.4579 14.07096449553239
UNKNOWN                 
1 87051U          25342.51716282  .00002000  00000+0  70707-3 0  9994
2 87051  65.7286 264.3891 0715199 143.3475 221.8776 13.45831753588014
UNKNOWN                 
1 87054U          25342.61543753  .00003638  00000+0  20507-2 0  9999
2 87054 100.0919 221.5305 0013793 356.4458   3.6609 14.11032575615748
UNKNOWN                 
1 87071U          25342.54646362  .00004953  00000+0  17977-2 0  9998
2 87071  61.2211 284.2878 0478201 235.4047 120.0995 13.85576284601905
UNKNOWN                 
1 87129U          25341.21273521  .00000298  00000+0  24829-2 0  9990
2 87129 102.2626  72.1139 0030468 101.2321 259.2170 12.42813755545987
UNKNOWN                 
1 87159U          25336.51659678  .00001561  00000+0  18214-2 0  9996
2 87159  90.3494  69.0344 0103728 286.3440  72.6334 13.66020359555291
UNKNOWN                 
1 87163U          25342.16569046  .00004769  00000+0  14520-2 0  9997
2 87163  65.6007 247.5869 0642295  66.6691 300.0600 13.63875442576891
UNKNOWN                 
1 87164U          25339.28898524  .00008848  00000+0  18102-2 0  9995
2 87164  65.2043 349.3470 0097707  57.8587 303.1947 14.58267661634688
UNKNOWN                 
1 87204U          25340.06116770  .00004563  00000+0  17892-2 0  9999
2 87204  98.5367 201.0139 0046580 344.9482  15.0311 14.29280457624481
UNKNOWN                 
1 87211U          25341.78048380  .00006007  00000+0  16552-2 0  9995
2 87211  99.0855 341.2378 0053238 173.1990   4.0292 14.46423497707056
UNKNOWN                 
1 87214U          25341.76290563  .00001360  00000+0  12421-2 0  9996
2 87214 100.3311 339.9413 0074280 267.0757  92.1891 13.84086964599552
UNKNOWN                 
1 87237U          25342.42965459  .00000735  00000+0  58835-3 0  9993
2 87237  99.2570  37.9221 0102460 296.0009  80.1171 13.91747265611162
UNKNOWN                 
1 87239U          25341.57428187  .00016645  00000+0  41166-2 0  9997
2 87239  82.8731  87.2552 0018263  62.6783 297.6273 14.51826607627125
UNKNOWN                 
1 87245U          25342.63774559  .00007159  00000+0  14817-2 0  9992
2 87245  65.6413  58.7842 0430509 123.3026  22.8232 14.15785729613621
UNKNOWN                 
1 87271U          25342.47351371  .00009522  00000+0  17710-2 0  9997
2 87271  65.7554 247.7684 0419458  75.8319 288.8985 14.21552220611764
UNKNOWN                 
1 87280U          25342.00402028  .00000559  00000+0  98034-3 0  9992
2 87280  64.6154 247.0863 0129899 261.7256  96.9035 13.48547994533210
UNKNOWN                 
1 87293U          25342.57658406  .00005857  00000+0  11720-2 0  9993
2 87293  65.8969 156.3073 0426147   1.9341 358.3268 14.17973399613403
UNKNOWN                 
1 87300U          25342.21731770  .00002715  00000+0  18942-2 0  9992
2 87300 100.0855 324.2212 0028913 304.5535  55.2897 13.99405992612481
UNKNOWN                 
1 87304U          25342.23768940  .00003655  00000+0  54133-3 0  9994
2 87304  74.0190 329.7646 0019656 298.1021  61.8165 14.75400941645818
UNKNOWN                 
1 87320U          25342.57533717  .00001961  00000+0  12574-2 0  9991
2 87320  66.5938  94.2080 0415102  57.5266 306.5223 13.70040379593176
UNKNOWN                 
1 87334U          25342.29316800  .00030068  00000+0  17758-1 0  9995
2 87334  89.9942 271.7171 0067470 270.9099  88.4354 14.06463453386021
UNKNOWN                 
1 87335U          25342.23558283  .00026312  00000+0  15312-1 0  9994
2 87335  89.9770 268.0321 0076891 244.0805 115.2439 14.06954020386344
UNKNOWN                 
1 87405U          25342.19893854  .00003142  00000+0  22401-2 0  9997
2 87405  82.7504  63.7027 0056701 343.7628  16.1720 13.96329268610529
UNKNOWN                 
1 87426U          25341.75905656  .00009747  00000+0  37339-2 0  9998
2 87426  65.7841 348.0558 0070391 293.3297 246.2841 14.29555723621872
UNKNOWN                 
1 87448U          25342.05025510  .00001904  00000+0  15468-2 0  9994
2 87448 100.4512 187.9937 0063121 217.2185 142.4586 13.90581475608589
UNKNOWN                 
1 87456U          25340.63787409  .00006883  00000+0  10360-2 0  9994
2 87456  65.7818 107.1903 0510617   8.0641 352.8261 14.13392421610630
UNKNOWN                 
1 87517U          25342.02668627  .00003636  00000+0  10212-2 0  9996
2 87517  65.8238 244.3077 0674819 308.6919  63.5860 13.61226401592279
